{
  "norad_id": 23613,
  "name": "TDRS 7",
  "history": [
    {
      "epoch": "2026-03-28T17:19:38.578656Z",
      "apogee_km": 35825.93916173147,
      "perigee_km": 35748.18821826714,
      "latitude_deg": -1.4989830647794955,
      "longitude_deg": 88.99626852820602,
      "height_km": 35813.208470556776,
      "semi_major_axis_km": 42165.20068999931,
      "eccentricity": 0.00092198,
      "inclination_deg": 13.4109,
      "raan_deg": 348.7422,
      "arg_perigee_deg": 54.013,
      "mean_anomaly_deg": 132.357,
      "mean_motion_rev_day": 1.00270113
    },
    {
      "epoch": "2026-03-29T17:00:38.604960Z",
      "apogee_km": 35826.06384079357,
      "perigee_km": 35748.209879138536,
      "latitude_deg": -0.6270344504860442,
      "longitude_deg": 89.09394973891627,
      "height_km": 35811.11728445876,
      "semi_major_axis_km": 42165.27385996606,
      "eccentricity": 0.0009232,
      "inclination_deg": 13.4105,
      "raan_deg": 348.7354,
      "arg_perigee_deg": 54.2911,
      "mean_anomaly_deg": 128.2995,
      "mean_motion_rev_day": 1.00269852
    },
    {
      "epoch": "2026-03-29T17:00:38.605824Z",
      "apogee_km": 35826.06510575179,
      "perigee_km": 35748.208614180316,
      "latitude_deg": -0.6270350721913498,
      "longitude_deg": 89.09394873949223,
      "height_km": 35811.118076522784,
      "semi_major_axis_km": 42165.27385996606,
      "eccentricity": 0.00092323,
      "inclination_deg": 13.4105,
      "raan_deg": 348.7354,
      "arg_perigee_deg": 54.2911,
      "mean_anomaly_deg": 128.2995,
      "mean_motion_rev_day": 1.00269852
    },
    {
      "epoch": "2026-03-30T16:59:38.522400Z",
      "apogee_km": 35826.201308024494,
      "perigee_km": 35748.22155594136,
      "latitude_deg": -0.7973497686375767,
      "longitude_deg": 89.06293836681121,
      "height_km": 35811.541529176364,
      "semi_major_axis_km": 42165.34843198293,
      "eccentricity": 0.00092469,
      "inclination_deg": 13.4101,
      "raan_deg": 348.7286,
      "arg_perigee_deg": 54.5108,
      "mean_anomaly_deg": 128.811,
      "mean_motion_rev_day": 1.00269586
    },
    {
      "epoch": "2026-03-31T19:16:26.412672Z",
      "apogee_km": 35826.35562860496,
      "perigee_km": 35748.23151883797,
      "latitude_deg": -8.331178363095152,
      "longitude_deg": 88.31978092973628,
      "height_km": 35826.00862853711,
      "semi_major_axis_km": 42165.43057372147,
      "eccentricity": 0.0009264,
      "inclination_deg": 13.4097,
      "raan_deg": 348.7212,
      "arg_perigee_deg": 54.7626,
      "mean_anomaly_deg": 163.833,
      "mean_motion_rev_day": 1.00269293
    },
    {
      "epoch": "2026-04-01T16:57:21.803040Z",
      "apogee_km": 35826.481445048616,
      "perigee_km": 35748.23914826494,
      "latitude_deg": -1.1208590812380939,
      "longitude_deg": 88.99836818652454,
      "height_km": 35812.33222554679,
      "semi_major_axis_km": 42165.49729665678,
      "eccentricity": 0.0009278,
      "inclination_deg": 13.4093,
      "raan_deg": 348.7152,
      "arg_perigee_deg": 54.9659,
      "mean_anomaly_deg": 129.7458,
      "mean_motion_rev_day": 1.00269055
    },
    {
      "epoch": "2026-04-02T17:26:51.677664Z",
      "apogee_km": 35826.6291717687,
      "perigee_km": 35748.243371057135,
      "latitude_deg": -3.036873969797994,
      "longitude_deg": 88.7561568999693,
      "height_km": 35816.781639140914,
      "semi_major_axis_km": 42165.57327141292,
      "eccentricity": 0.0009295,
      "inclination_deg": 13.4089,
      "raan_deg": 348.7084,
      "arg_perigee_deg": 55.1377,
      "mean_anomaly_deg": 137.9474,
      "mean_motion_rev_day": 1.00268784
    },
    {
      "epoch": "2026-04-02T17:26:51.678528Z",
      "apogee_km": 35826.62832845723,
      "perigee_km": 35748.2442143686,
      "latitude_deg": -3.0368736247497696,
      "longitude_deg": 88.75615180122635,
      "height_km": 35816.7810073225,
      "semi_major_axis_km": 42165.57327141292,
      "eccentricity": 0.00092948,
      "inclination_deg": 13.4089,
      "raan_deg": 348.7084,
      "arg_perigee_deg": 55.1377,
      "mean_anomaly_deg": 137.9474,
      "mean_motion_rev_day": 1.00268784
    },
    {
      "epoch": "2026-04-03T16:47:21.609024Z",
      "apogee_km": 35826.78168425522,
      "perigee_km": 35748.23551962792,
      "latitude_deg": -0.9950015565698797,
      "longitude_deg": 88.98318213587449,
      "height_km": 35812.08287498108,
      "semi_major_axis_km": 42165.64560194157,
      "eccentricity": 0.0009314,
      "inclination_deg": 13.4085,
      "raan_deg": 348.702,
      "arg_perigee_deg": 55.3162,
      "mean_anomaly_deg": 128.8446,
      "mean_motion_rev_day": 1.00268526
    },
    {
      "epoch": "2026-04-03T16:47:21.609888Z",
      "apogee_km": 35826.7808409423,
      "perigee_km": 35748.23636294083,
      "latitude_deg": -0.9950011449563443,
      "longitude_deg": 88.98317679446113,
      "height_km": 35812.082339941844,
      "semi_major_axis_km": 42165.64560194157,
      "eccentricity": 0.00093138,
      "inclination_deg": 13.4085,
      "raan_deg": 348.702,
      "arg_perigee_deg": 55.3162,
      "mean_anomaly_deg": 128.8446,
      "mean_motion_rev_day": 1.00268526
    },
    {
      "epoch": "2026-04-05T14:11:05.678880Z",
      "apogee_km": 35827.14954534344,
      "perigee_km": 35748.14857189973,
      "latitude_deg": 7.238900377904296,
      "longitude_deg": 89.80695241240244,
      "height_km": 35787.647561568854,
      "semi_major_axis_km": 42165.78605862159,
      "eccentricity": 0.00093679,
      "inclination_deg": 13.4077,
      "raan_deg": 348.6894,
      "arg_perigee_deg": 55.7255,
      "mean_anomaly_deg": 91.2155,
      "mean_motion_rev_day": 1.00268025
    }
  ]
}